[
  {
    "name": "KUIPER-00250",
    "noradId": "67155",
    "line1": "1 67155U 25301Y   26176.66758541  .00004280  00000+0  58994-3 0  9990",
    "line2": "2 67155  51.8987 313.1196 0000554 104.0031 256.0993 14.79944222 29684"
  },
  {
    "name": "KUIPER-00251",
    "noradId": "67156",
    "line1": "1 67156U 25301Z   26176.61349100 -.00002039  00000+0 -23841-3 0  9998",
    "line2": "2 67156  51.9012 300.9237 0000475  91.8388 268.2628 14.79953967 30009"
  },
  {
    "name": "KUIPER-00252",
    "noradId": "67157",
    "line1": "1 67157U 25301AA  26176.61084898  .00001611  00000+0  24027-3 0  9999",
    "line2": "2 67157  51.9000 303.3876 0000547 100.9874 259.1150 14.79936427 29789"
  },
  {
    "name": "KUIPER-00261",
    "noradId": "67158",
    "line1": "1 67158U 25301AB  26176.63382402  .00004308  00000+0  59360-3 0  9998",
    "line2": "2 67158  51.9033 313.3356 0000481 109.2463 250.8551 14.79941734 29648"
  },
  {
    "name": "KUIPER-00265",
    "noradId": "67159",
    "line1": "1 67159U 25301AC  26176.65141211  .00001404  00000+0  21308-3 0  9997",
    "line2": "2 67159  51.9021 328.2316 0000651 112.5195 247.5836 14.79931368 29477"
  },
  {
    "name": "KUIPER-00159",
    "noradId": "67764",
    "line1": "1 67764U 26030A   26174.99076819  .00027044  00000+0  71046-3 0  9997",
    "line2": "2 67764  51.8826  65.4060 0006924  69.6969 290.4762 15.38393874 21441"
  },
  {
    "name": "KUIPER-00160",
    "noradId": "67765",
    "line1": "1 67765U 26030B   26176.67721703  .00044939  00000+0  11537-2 0  9994",
    "line2": "2 67765  51.8810  57.1620 0006364  86.8776 273.2939 15.38854852 21702"
  },
  {
    "name": "KUIPER-00177",
    "noradId": "67766",
    "line1": "1 67766U 26030C   26176.46324743  .00001268  00000+0  19525-3 0  9999",
    "line2": "2 67766  51.8998  96.5483 0000845 100.7421 259.3637 14.79934110 21132"
  },
  {
    "name": "KUIPER-00178",
    "noradId": "67767",
    "line1": "1 67767U 26030D   26176.49707515  .00003059  00000+0  43070-3 0  9997",
    "line2": "2 67767  51.9002  96.3828 0000763 115.4810 244.6231 14.79865438 21149"
  },
  {
    "name": "KUIPER-00180",
    "noradId": "67768",
    "line1": "1 67768U 26030E   26176.50239536  .00002816  00000+0  39812-3 0  9992",
    "line2": "2 67768  51.8970  91.3628 0000740  91.4228 268.6819 14.79940966 21213"
  },
  {
    "name": "KUIPER-00197",
    "noradId": "67769",
    "line1": "1 67769U 26030F   26176.75003471 -.00002910  00000+0 -35306-3 0  9998",
    "line2": "2 67769  51.8995  70.2803 0001071 146.3518 339.5226 14.79911757  4927"
  },
  {
    "name": "KUIPER-00198",
    "noradId": "67770",
    "line1": "1 67770U 26030G   26176.47671830  .00003133  00000+0  43969-3 0  9999",
    "line2": "2 67770  51.8973  83.9745 0000656 100.5221 259.5815 14.79939165 21312"
  },
  {
    "name": "KUIPER-00199",
    "noradId": "67771",
    "line1": "1 67771U 26030H   26176.69333707  .00047769  00000+0  13169-2 0  9993",
    "line2": "2 67771  51.8804  58.7345 0011299  87.2233 273.0047 15.36586701 21687"
  },
  {
    "name": "KUIPER-00200",
    "noradId": "67772",
    "line1": "1 67772U 26030J   26176.75003471 -.01136609  00000+0 -12711+0 0  9997",
    "line2": "2 67772  51.9044  67.8800 0003114  78.1896 190.3129 14.89466701  5861"
  },
  {
    "name": "KUIPER-00203",
    "noradId": "67773",
    "line1": "1 67773U 26030K   26176.52536831  .00004353  00000+0  59955-3 0  9996",
    "line2": "2 67773  51.9054 101.3068 0000837  89.8386 270.2672 14.79936699 21074"
  },
  {
    "name": "KUIPER-00205",
    "noradId": "67774",
    "line1": "1 67774U 26030L   26176.75003471 -.00007135  00000+0 -95018-3 0  9994",
    "line2": "2 67774  51.9001  65.2347 0001119 105.9653 181.6985 14.78032706  5143"
  },
  {
    "name": "KUIPER-00208",
    "noradId": "67775",
    "line1": "1 67775U 26030M   26175.97697630  .00002222  00000+0  34693-3 0  9996",
    "line2": "2 67775  51.8976  95.6765 0008125  60.1730 300.0037 14.76469401 21100"
  },
  {
    "name": "KUIPER-00209",
    "noradId": "67776",
    "line1": "1 67776U 26030N   26176.46860647  .00004906  00000+0  67228-3 0  9993",
    "line2": "2 67776  51.8982  91.6021 0000746  73.7799 286.3245 14.79920862 21209"
  },
  {
    "name": "KUIPER-00213",
    "noradId": "67777",
    "line1": "1 67777U 26030P   26176.43754028  .00004903  00000+0  67137-3 0  9992",
    "line2": "2 67777  51.8958  89.2279 0001018 100.7012 259.4065 14.79950256 21237"
  },
  {
    "name": "KUIPER-00214",
    "noradId": "67778",
    "line1": "1 67778U 26030Q   26176.47403492  .00002224  00000+0  32065-3 0  9999",
    "line2": "2 67778  51.8990  86.5693 0000816  92.5980 267.5076 14.79939562 21274"
  },
  {
    "name": "KUIPER-00215",
    "noradId": "67779",
    "line1": "1 67779U 26030R   26176.40995970  .00002383  00000+0  37037-3 0  9990",
    "line2": "2 67779  51.8993  73.7684 0000682  60.1776 299.9253 14.76380193 21454"
  },
  {
    "name": "KUIPER-00218",
    "noradId": "67780",
    "line1": "1 67780U 26030S   26176.47127139  .00003107  00000+0  43644-3 0  9999",
    "line2": "2 67780  51.8959  88.9934 0000797 102.1809 257.9242 14.79920162 21243"
  },
  {
    "name": "KUIPER-00220",
    "noradId": "67781",
    "line1": "1 67781U 26030T   26176.75003471 -.01454376  00000+0 -13210+0 0  9996",
    "line2": "2 67781  51.8968  63.5536 0007910  86.3533 183.3715 14.98357296  5312"
  },
  {
    "name": "KUIPER-00222",
    "noradId": "67782",
    "line1": "1 67782U 26030U   26176.44296668  .00002601  00000+0  37015-3 0  9995",
    "line2": "2 67782  51.8986  84.2734 0000994  95.9083 264.1992 14.79929894 21304"
  },
  {
    "name": "KUIPER-00223",
    "noradId": "67783",
    "line1": "1 67783U 26030V   26176.41726632  .00003047  00000+0  42847-3 0  9996",
    "line2": "2 67783  51.8999  76.6753 0000885 110.7726 249.3331 14.79937896 21419"
  },
  {
    "name": "KUIPER-00225",
    "noradId": "67784",
    "line1": "1 67784U 26030W   26176.68178866 -.00019183  00000+0 -24883-2 0  9995",
    "line2": "2 67784  51.8952  80.6707 0000957 113.4509 246.6554 14.80035106 21379"
  },
  {
    "name": "KUIPER-00226",
    "noradId": "67785",
    "line1": "1 67785U 26030X   26176.75003471 -.00873588  00000+0 -72700-1 0  9990",
    "line2": "2 67785  51.8909  67.1024 0017554  85.6423 322.4171 15.00952466  5415"
  },
  {
    "name": "KUIPER-00259",
    "noradId": "67786",
    "line1": "1 67786U 26030Y   26176.44576751  .00004904  00000+0  67210-3 0  9991",
    "line2": "2 67786  51.8971  81.6205 0000159  78.8756 281.2224 14.79916420 21349"
  },
  {
    "name": "KUIPER-00260",
    "noradId": "67787",
    "line1": "1 67787U 26030Z   26176.71851713  .00004421  00000+0  60975-3 0  9991",
    "line2": "2 67787  51.8989  78.0052 0000941 118.6131 241.4926 14.79850174 21326"
  },
  {
    "name": "KUIPER-00262",
    "noradId": "67788",
    "line1": "1 67788U 26030AA  26176.68469699  .00004815  00000+0  66105-3 0  9994",
    "line2": "2 67788  51.8979  78.0730 0001114 135.4357 224.6695 14.79872990 21415"
  },
  {
    "name": "KUIPER-00266",
    "noradId": "67789",
    "line1": "1 67789U 26030AB  26176.72114442  .00002791  00000+0  39507-3 0  9990",
    "line2": "2 67789  51.8985  75.4109 0003271 117.7092 242.4203 14.79931946 21453"
  },
  {
    "name": "KUIPER-00268",
    "noradId": "67790",
    "line1": "1 67790U 26030AC  26176.41996615  .00001827  00000+0  26864-3 0  9999",
    "line2": "2 67790  51.9038  74.2494 0000903 111.0319 249.0740 14.79931240 21442"
  },
  {
    "name": "KUIPER-00270",
    "noradId": "67791",
    "line1": "1 67791U 26030AD  26176.75003471 -.00022199  00000+0 -23891-2 0  9999",
    "line2": "2 67791  51.8975  62.9388 0010872  59.4885 292.4368 14.87740630  5627"
  },
  {
    "name": "KUIPER-00274",
    "noradId": "67792",
    "line1": "1 67792U 26030AE  26176.71037296  .00004552  00000+0  62557-3 0  9992",
    "line2": "2 67792  51.8987  85.4501 0001121 164.0123 196.0875 14.79941969 21318"
  },
  {
    "name": "KUIPER-00275",
    "noradId": "67793",
    "line1": "1 67793U 26030AF  26176.75003471 -.00006087  00000+0 -77610-3 0  9998",
    "line2": "2 67793  51.9000  65.2835 0001551  61.8834  36.0771 14.79613603  4671"
  },
  {
    "name": "KUIPER-00276",
    "noradId": "67794",
    "line1": "1 67794U 26030AG  26176.75003471 -.00021939  00000+0 -27983-2 0  9999",
    "line2": "2 67794  51.8978  70.2760 0007800  75.9536 226.5791 14.80791733  5443"
  },
  {
    "name": "KUIPER-00279",
    "noradId": "67795",
    "line1": "1 67795U 26030AH  26176.75003471 -.01819100  00000+0 -18271+0 0  9993",
    "line2": "2 67795  51.8981  60.6313 0008043  61.2547 203.5593 14.94703512  4879"
  },
  {
    "name": "KUIPER-00131",
    "noradId": "68573",
    "line1": "1 68573U 26072A   26176.66595117  .00001462  00000+0  22075-3 0  9999",
    "line2": "2 68573  51.8981 158.1552 0000652  75.8060 284.2974 14.79930469 12370"
  },
  {
    "name": "KUIPER-00189",
    "noradId": "68574",
    "line1": "1 68574U 26072B   26176.22421059  .00002520  00000+0  35947-3 0  9993",
    "line2": "2 68574  51.8973 162.5952 0000623  98.6591 261.4442 14.79927171 12277"
  },
  {
    "name": "KUIPER-00192",
    "noradId": "68575",
    "line1": "1 68575U 26072C   26176.66864536  .00002777  00000+0  39307-3 0  9991",
    "line2": "2 68575  51.8975 155.6417 0000630  71.3981 288.7050 14.79935474 12416"
  },
  {
    "name": "KUIPER-00193",
    "noradId": "68576",
    "line1": "1 68576U 26072D   26176.75003471  .00031279  00000+0  44361-2 0  9999",
    "line2": "2 68576  51.9021 144.8539 0000347 211.1423  31.0040 14.76724034  5757"
  },
  {
    "name": "KUIPER-00194",
    "noradId": "68577",
    "line1": "1 68577U 26072E   26176.63801685  .00002833  00000+0  40094-3 0  9994",
    "line2": "2 68577  51.9000 153.2910 0000784  15.0675 345.0310 14.79877628 12440"
  },
  {
    "name": "KUIPER-00229",
    "noradId": "68578",
    "line1": "1 68578U 26072F   26176.22714092  .00002453  00000+0  35084-3 0  9996",
    "line2": "2 68578  51.8997 160.0924 0000470  92.4100 267.6916 14.79905834 12318"
  }
]